NORAD_CAT_ID,OBJECT_NAME,OBJECT_TYPE,EPOCH,MEAN_MOTION,ECCENTRICITY,INCLINATION,RA_OF_ASC_NODE,ARG_OF_PERICENTER,MEAN_ANOMALY,BSTAR,MEAN_MOTION_DOT,MEAN_MOTION_DDOT,TLE_LINE0,TLE_LINE1,TLE_LINE2,SEMIMAJOR_AXIS,PERIOD,APOGEE,PERIGEE,DECAYED
52988.0,STARLINK-4291,PAYLOAD,2024-08-18 21:32:58,15.08856581,0.0001897,53.2159,123.0379,125.9945,234.1223,0.0012719,0.00020022,0.0,0 STARLINK-4291,1 52988U 22076C   24231.89789357  .00020022  00000-0  12719-2 0  9995,2 52988  53.2159 123.0379 0001897 125.9945 234.1223 15.08856581117120,6917.83,95.437,541.007,538.382,0.0
52988.0,STARLINK-4291,PAYLOAD,2024-08-19 10:16:03,15.08845563,0.0001721,53.2158,120.6604,82.6417,277.4771,0.00041998,6.403e-05,0.0,0 STARLINK-4291,1 52988U 22076C   24232.42781685  .00006403  00000-0  41998-3 0  9990,2 52988  53.2158 120.6604 0001721  82.6417 277.4771 15.08845563117678,6917.863,95.437,540.919,538.538,0.0
52988.0,STARLINK-4291,PAYLOAD,2024-08-20 02:09:54,15.08841743,0.0001496,53.216,117.6856,109.2418,250.8736,0.00047423,7.268e-05,0.0,0 STARLINK-4291,1 52988U 22076C   24233.09021751  .00007268  00000-0  47423-3 0  9994,2 52988  53.2160 117.6856 0001496 109.2418 250.8736 15.08841743117775,6917.875,95.437,540.775,538.705,0.0
52988.0,STARLINK-4291,PAYLOAD,2024-08-21 02:00:41,15.08860162,0.00016,53.2163,113.2244,98.6681,261.4492,0.00070282,0.00010921,0.0,0 STARLINK-4291,1 52988U 22076C   24234.08381223  .00010921  00000-0  70282-3 0  9996,2 52988  53.2163 113.2244 0001600  98.6681 261.4492 15.08860162117459,6917.819,95.436,540.791,538.577,0.0
52988.0,STARLINK-4291,PAYLOAD,2024-08-21 19:29:56,15.08844527,0.0002196,53.2147,109.9466,128.8664,231.2524,0.00014571,2.032e-05,0.0,0 STARLINK-4291,1 52988U 22076C   24234.81245395  .00002032  00000-0  14571-3 0  9999,2 52988  53.2147 109.9466 0002196 128.8664 231.2524 15.08844527117567,6917.867,95.437,541.251,538.212,0.0
52988.0,STARLINK-4291,PAYLOAD,2024-08-21 21:05:19,15.08842948,0.0001513,53.2149,109.6484,104.2931,255.8229,0.00020464,2.971e-05,0.0,0 STARLINK-4291,1 52988U 22076C   24234.87869555  .00002971  00000-0  20464-3 0  9995,2 52988  53.2149 109.6484 0001513 104.2931 255.8229 15.08842948118046,6917.871,95.437,540.783,538.69,0.0
